IRIDIUM 144             
1 43249U 18030A   24329.43110478  .00000032  00000+0  45400-5 0  9994
2 43249  86.3987 168.5692 0001966  76.1214 284.0200 14.34216795348479
IRIDIUM 149             
1 43250U 18030B   24329.50721399  .00000085  00000+0  23117-4 0  9992
2 43250  86.3991 168.5116 0001828  88.8754 271.2651 14.34218335348507
IRIDIUM 157             
1 43251U 18030C   24329.52624056  .00000481  00000+0  16476-3 0  9996
2 43251  86.3992 168.5441 0001994  90.3829 269.7595 14.34217247348482
IRIDIUM 140             
1 43252U 18030D   24329.40572601  .00000439  00000+0  14962-3 0  9993
2 43252  86.3988 168.6080 0002056  84.7012 275.4418 14.34220274348526
IRIDIUM 145             
1 43253U 18030E   24329.53258530  .00000217  00000+0  70451-4 0  9990
2 43253  86.3989 168.5277 0001745  79.2071 280.9321 14.34217305348472
IRIDIUM 146             
1 43254U 18030F   24329.58331718  .00000931  00000+0  32525-3 0  9998
2 43254  86.3992 168.5216 0001812  76.8069 283.3329 14.34215728348499
IRIDIUM 148             
1 43255U 18030G   24329.55163160  .00000596  00000+0  20585-3 0  9990
2 43255  86.3991 168.5692 0001802  87.5834 272.5568 14.34220577348522
IRIDIUM 142             
1 43256U 18030H   24329.58966300  .00000105  00000+0  30384-4 0  9996
2 43256  86.3983 168.4631 0001522  77.9676 282.1691 14.34216877348490
